{"type": "FeatureCollection", "features": [ {"type": "Feature", "properties": {"norad_id": 66766, "name": "TRANSPORTER-15 DE", "group": "last-30-days", "lat": 44.1534545351165, "lon": 59.589004716382135, "alt_km": 506.0851730952181, "timestamp": "2025-12-21T05:44:50.291311+00:00", "meta": {"OBJECT_NAME": "TRANSPORTER-15 DE", "OBJECT_ID": "2025-276DE", "EPOCH": "2025-12-20T18:28:47.887680", "MEAN_MOTION": 15.18377957, "ECCENTRICITY": 0.0001977, "INCLINATION": 97.4373, "RA_OF_ASC_NODE": 66.4136, "ARG_OF_PERICENTER": 90.9888, "MEAN_ANOMALY": 269.1573, "EPHEMERIS_TYPE": 0, "CLASSIFICATION_TYPE": "U", "NORAD_CAT_ID": 66766, "ELEMENT_SET_NO": 999, "REV_AT_EPOCH": 334, "BSTAR": 0.00025988261, "MEAN_MOTION_DOT": 5.275e-05, "MEAN_MOTION_DDOT": 0}, "tle": {"line1": "1 66766U 25276DE  25354.76999870  .00005275  00000+0  25988-3 0  9990", "line2": "2 66766  97.4373  66.4136 0001977  90.9888 269.1573 15.18377957  3344"}}, "geometry": {"type": "Point", "coordinates": [59.589004716382135, 44.1534545351165]}}, {"type": "Feature", "properties": {"norad_id": 66767, "name": "TRANSPORTER-15 DF", "group": "last-30-days", "lat": 40.09109780879279, "lon": 60.560570081059566, "alt_km": 507.15290136458225, "timestamp": "2025-12-21T05:44:50.291323+00:00", "meta": {"OBJECT_NAME": "TRANSPORTER-15 DF", "OBJECT_ID": "2025-276DF", "EPOCH": "2025-12-20T10:35:17.762784", "MEAN_MOTION": 15.18252938, "ECCENTRICITY": 0.00021766, "INCLINATION": 97.4391, "RA_OF_ASC_NODE": 66.0905, "ARG_OF_PERICENTER": 96.1826, "MEAN_ANOMALY": 263.9656, "EPHEMERIS_TYPE": 0, "CLASSIFICATION_TYPE": "U", "NORAD_CAT_ID": 66767, "ELEMENT_SET_NO": 999, "REV_AT_EPOCH": 329, "BSTAR": 6.783328e-05, "MEAN_MOTION_DOT": 1.322e-05, "MEAN_MOTION_DDOT": 0}, "tle": {"line1": "1 66767U 25276DF  25354.44117781  .00001322  00000+0  67833-4 0  9994", "line2": "2 66767  97.4391  66.0905 0002176  96.1826 263.9656 15.18252938  3296"}}, "geometry": {"type": "Point", "coordinates": [60.560570081059566, 40.09109780879279]}}, {"type": "Feature", "properties": {"norad_id": 66768, "name": "TRANSPORTER-15 DG", "group": "last-30-days", "lat": 50.55871951802298, "lon": 57.747875772213455, "alt_km": 504.49633362209806, "timestamp": "2025-12-21T05:44:50.291334+00:00", "meta": {"OBJECT_NAME": "TRANSPORTER-15 DG", "OBJECT_ID": "2025-276DG", "EPOCH": "2025-12-20T15:17:21.867360", "MEAN_MOTION": 15.18505955, "ECCENTRICITY": 0.0001908, "INCLINATION": 97.4323, "RA_OF_ASC_NODE": 66.2867, "ARG_OF_PERICENTER": 79.1921, "MEAN_ANOMALY": 280.9528, "EPHEMERIS_TYPE": 0, "CLASSIFICATION_TYPE": "U", "NORAD_CAT_ID": 66768, "ELEMENT_SET_NO": 999, "REV_AT_EPOCH": 332, "BSTAR": 0.0010746, "MEAN_MOTION_DOT": 0.00022151, "MEAN_MOTION_DDOT": 0}, "tle": {"line1": "1 66768U 25276DG  25354.63705865  .00022151  00000+0  10746-2 0  9994", "line2": "2 66768  97.4323  66.2867 0001908  79.1921 280.9528 15.18505955  3321"}}, "geometry": {"type": "Point", "coordinates": [57.747875772213455, 50.55871951802298]}}, {"type": "Feature", "properties": {"norad_id": 66769, "name": "TRANSPORTER-15 DH", "group": "last-30-days", "lat": 46.306999335093494, "lon": 59.02681324186326, "alt_km": 505.95383895791474, "timestamp": "2025-12-21T05:44:50.291343+00:00", "meta": {"OBJECT_NAME": "TRANSPORTER-15 DH", "OBJECT_ID": "2025-276DH", "EPOCH": "2025-12-20T16:53:19.332672", "MEAN_MOTION": 15.18378471, "ECCENTRICITY": 0.00025266, "INCLINATION": 97.4429, "RA_OF_ASC_NODE": 66.3643, "ARG_OF_PERICENTER": 112.3492, "MEAN_ANOMALY": 247.801, "EPHEMERIS_TYPE": 0, "CLASSIFICATION_TYPE": "U", "NORAD_CAT_ID": 66769, "ELEMENT_SET_NO": 999, "REV_AT_EPOCH": 333, "BSTAR": 0.00032883696, "MEAN_MOTION_DOT": 6.693e-05, "MEAN_MOTION_DDOT": 0}, "tle": {"line1": "1 66769U 25276DH  25354.70369598  .00006693  00000+0  32884-3 0  9993", "line2": "2 66769  97.4429  66.3643 0002526 112.3492 247.8010 15.18378471  3332"}}, "geometry": {"type": "Point", "coordinates": [59.02681324186326, 46.306999335093494]}}, {"type": "Feature", "properties": {"norad_id": 66770, "name": "TRANSPORTER-15 DJ", "group": "last-30-days", "lat": 48.18116002363316, "lon": 58.496813325539, "alt_km": 506.07639703408495, "timestamp": "2025-12-21T05:44:50.291354+00:00", "meta": {"OBJECT_NAME": "TRANSPORTER-15 DJ", "OBJECT_ID": "2025-276DJ", "EPOCH": "2025-12-20T15:17:55.115808", "MEAN_MOTION": 15.18376334, "ECCENTRICITY": 0.0002895, "INCLINATION": 97.4451, "RA_OF_ASC_NODE": 66.3087, "ARG_OF_PERICENTER": 129.8461, "MEAN_ANOMALY": 230.3028, "EPHEMERIS_TYPE": 0, "CLASSIFICATION_TYPE": "U", "NORAD_CAT_ID": 66770, "ELEMENT_SET_NO": 999, "REV_AT_EPOCH": 332, "BSTAR": 0.00036995, "MEAN_MOTION_DOT": 7.539e-05, "MEAN_MOTION_DDOT": 0}, "tle": {"line1": "1 66770U 25276DJ  25354.63744347  .00007539  00000+0  36995-3 0  9993", "line2": "2 66770  97.4451  66.3087 0002895 129.8461 230.3028 15.18376334  3320"}}, "geometry": {"type": "Point", "coordinates": [58.496813325539, 48.18116002363316]}}, {"type": "Feature", "properties": {"norad_id": 66771, "name": "TRANSPORTER-15 DK", "group": "last-30-days", "lat": 50.03973076600242, "lon": 57.921133848789616, "alt_km": 505.26449525424505, "timestamp": "2025-12-21T05:44:50.291365+00:00", "meta": {"OBJECT_NAME": "TRANSPORTER-15 DK", "OBJECT_ID": "2025-276DK", "EPOCH": "2025-12-20T16:52:21.017856", "MEAN_MOTION": 15.18438446, "ECCENTRICITY": 0.00028369, "INCLINATION": 97.4454, "RA_OF_ASC_NODE": 66.3719, "ARG_OF_PERICENTER": 119.9454, "MEAN_ANOMALY": 240.2062, "EPHEMERIS_TYPE": 0, "CLASSIFICATION_TYPE": "U", "NORAD_CAT_ID": 66771, "ELEMENT_SET_NO": 999, "REV_AT_EPOCH": 333, "BSTAR": 0.00031432211, "MEAN_MOTION_DOT": 6.406e-05, "MEAN_MOTION_DDOT": 0}, "tle": {"line1": "1 66771U 25276DK  25354.70302104  .00006406  00000+0  31432-3 0  9996", "line2": "2 66771  97.4454  66.3719 0002836 119.9454 240.2062 15.18438446  3335"}}, "geometry": {"type": "Point", "coordinates": [57.921133848789616, 50.03973076600242]}}, {"type": "Feature", "properties": {"norad_id": 66772, "name": "TRANSPORTER-15 DL", "group": "last-30-days", "lat": 61.202180762461644, "lon": 53.142034359352905, "alt_km": 502.5496250339638, "timestamp": "2025-12-21T05:44:50.291376+00:00", "meta": {"OBJECT_NAME": "TRANSPORTER-15 DL", "OBJECT_ID": "2025-276DL", "EPOCH": "2025-12-20T15:14:33.701856", "MEAN_MOTION": 15.18649996, "ECCENTRICITY": 0.000275, "INCLINATION": 97.4439, "RA_OF_ASC_NODE": 66.3067, "ARG_OF_PERICENTER": 106.2648, "MEAN_ANOMALY": 253.8889, "EPHEMERIS_TYPE": 0, "CLASSIFICATION_TYPE": "U", "NORAD_CAT_ID": 66772, "ELEMENT_SET_NO": 999, "REV_AT_EPOCH": 332, "BSTAR": 0.00055218, "MEAN_MOTION_DOT": 0.00011381, "MEAN_MOTION_DDOT": 0}, "tle": {"line1": "1 66772U 25276DL  25354.63511229  .00011381  00000+0  55218-3 0  9995", "line2": "2 66772  97.4439  66.3067 0002750 106.2648 253.8889 15.18649996  3324"}}, "geometry": {"type": "Point", "coordinates": [53.142034359352905, 61.202180762461644]}}, {"type": "Feature", "properties": {"norad_id": 66773, "name": "TRANSPORTER-15 DM", "group": "last-30-days", "lat": 55.790651530954854, "lon": 55.812382118464605, "alt_km": 503.7047460349113, "timestamp": "2025-12-21T05:44:50.291385+00:00", "meta": {"OBJECT_NAME": "TRANSPORTER-15 DM", "OBJECT_ID": "2025-276DM", "EPOCH": "2025-12-20T15:15:56.613024", "MEAN_MOTION": 15.1849824, "ECCENTRICITY": 0.0002851, "INCLINATION": 97.4427, "RA_OF_ASC_NODE": 66.305, "ARG_OF_PERICENTER": 104.7876, "MEAN_ANOMALY": 255.3674, "EPHEMERIS_TYPE": 0, "CLASSIFICATION_TYPE": "U", "NORAD_CAT_ID": 66773, "ELEMENT_SET_NO": 999, "REV_AT_EPOCH": 332, "BSTAR": 0.00038617, "MEAN_MOTION_DOT": 7.901e-05, "MEAN_MOTION_DDOT": 0}, "tle": {"line1": "1 66773U 25276DM  25354.63607191  .00007901  00000+0  38617-3 0  9997", "line2": "2 66773  97.4427  66.3050 0002851 104.7876 255.3674 15.18498240  3325"}}, "geometry": {"type": "Point", "coordinates": [55.812382118464605, 55.790651530954854]}}, {"type": "Feature", "properties": {"norad_id": 66774, "name": "TRANSPORTER-15 DN", "group": "last-30-days", "lat": 58.102046583200305, "lon": 54.7713630603137, "alt_km": 503.15066867817404, "timestamp": "2025-12-21T05:44:50.291395+00:00", "meta": {"OBJECT_NAME": "TRANSPORTER-15 DN", "OBJECT_ID": "2025-276DN", "EPOCH": "2025-12-20T18:25:07.263552", "MEAN_MOTION": 15.18548862, "ECCENTRICITY": 0.00029465, "INCLINATION": 97.4427, "RA_OF_ASC_NODE": 66.4313, "ARG_OF_PERICENTER": 103.2264, "MEAN_ANOMALY": 256.9299, "EPHEMERIS_TYPE": 0, "CLASSIFICATION_TYPE": "U", "NORAD_CAT_ID": 66774, "ELEMENT_SET_NO": 999, "REV_AT_EPOCH": 334, "BSTAR": 0.00027563039, "MEAN_MOTION_DOT": 5.627e-05, "MEAN_MOTION_DDOT": 0}, "tle": {"line1": "1 66774U 25276DN  25354.76744518  .00005627  00000+0  27563-3 0  9998", "line2": "2 66774  97.4427  66.4313 0002946 103.2264 256.9299 15.18548862  3347"}}, "geometry": {"type": "Point", "coordinates": [54.7713630603137, 58.102046583200305]}}, {"type": "Feature", "properties": {"norad_id": 66775, "name": "TRANSPORTER-15 DP", "group": "last-30-days", "lat": 67.57868672386428, "lon": 48.43033950061352, "alt_km": 496.81894680719597, "timestamp": "2025-12-21T05:44:50.291405+00:00", "meta": {"OBJECT_NAME": "TRANSPORTER-15 DP", "OBJECT_ID": "2025-276DP", "EPOCH": "2025-12-20T15:13:50.692800", "MEAN_MOTION": 15.20003618, "ECCENTRICITY": 0.0004646, "INCLINATION": 97.4343, "RA_OF_ASC_NODE": 66.2835, "ARG_OF_PERICENTER": 337.3747, "MEAN_ANOMALY": 22.7283, "EPHEMERIS_TYPE": 0, "CLASSIFICATION_TYPE": "U", "NORAD_CAT_ID": 66775, "ELEMENT_SET_NO": 999, "REV_AT_EPOCH": 332, "BSTAR": 0.035064, "MEAN_MOTION_DOT": 0.00807826, "MEAN_MOTION_DDOT": 0}, "tle": {"line1": "1 66775U 25276DP  25354.63461450  .00807826  00000+0  35064-1 0  9990", "line2": "2 66775  97.4343  66.2835 0004646 337.3747  22.7283 15.20003618  3325"}}, "geometry": {"type": "Point", "coordinates": [48.43033950061352, 67.57868672386428]}}]}